{
    "links": {
        "self": "http://www.neowsapp.com/rest/v1/neo/3991605?api_key=iIulBulltgU6a56xZRHN4H3l9WmuAYTsLGpBGhQ2"
    },
    "id": "3991605",
    "neo_reference_id": "3991605",
    "name": "(2020 CW2)",
    "designation": "2020 CW2",
    "nasa_jpl_url": "http://ssd.jpl.nasa.gov/sbdb.cgi?sstr=3991605",
    "absolute_magnitude_h": 26.298,
    "estimated_diameter": {
        "kilometers": {
            "estimated_diameter_min": 0.014620256,
            "estimated_diameter_max": 0.0326918862
        },
        "meters": {
            "estimated_diameter_min": 14.6202559812,
            "estimated_diameter_max": 32.6918862225
        },
        "miles": {
            "estimated_diameter_min": 0.0090846031,
            "estimated_diameter_max": 0.02031379
        },
        "feet": {
            "estimated_diameter_min": 47.9667206334,
            "estimated_diameter_max": 107.2568479941
        }
    },
    "is_potentially_hazardous_asteroid": false,
    "close_approach_data": [
        {
            "close_approach_date": "1909-02-12",
            "close_approach_date_full": "1909-Feb-12 04:21",
            "epoch_date_close_approach": -1921347540000,
            "relative_velocity": {
                "kilometers_per_second": "7.171269228",
                "kilometers_per_hour": "25816.5692206479",
                "miles_per_hour": "16041.4121360187"
            },
            "miss_distance": {
                "astronomical": "0.0526262921",
                "lunar": "20.4716276269",
                "kilometers": "7872781.204157827",
                "miles": "4891919.3989469326"
            },
            "orbiting_body": "Earth"
        },
        {
            "close_approach_date": "2013-01-11",
            "close_approach_date_full": "2013-Jan-11 23:42",
            "epoch_date_close_approach": 1357947720000,
            "relative_velocity": {
                "kilometers_per_second": "6.1426708522",
                "kilometers_per_hour": "22113.6150678726",
                "miles_per_hour": "13740.5404292567"
            },
            "miss_distance": {
                "astronomical": "0.0620900459",
                "lunar": "24.1530278551",
                "kilometers": "9288538.614842233",
                "miles": "5771630.2612114954"
            },
            "orbiting_body": "Mars"
        },
        {
            "close_approach_date": "2020-02-10",
            "close_approach_date_full": "2020-Feb-10 10:07",
            "epoch_date_close_approach": 1581329220000,
            "relative_velocity": {
                "kilometers_per_second": "6.5059133276",
                "kilometers_per_hour": "23421.2879792993",
                "miles_per_hour": "14553.0775224707"
            },
            "miss_distance": {
                "astronomical": "0.0407936838",
                "lunar": "15.8687429982",
                "kilometers": "6102648.205933506",
                "miles": "3792009.7573381428"
            },
            "orbiting_body": "Earth"
        }
    ],
    "orbital_data": {
        "orbit_id": "2",
        "orbit_determination_date": "2020-02-20 04:53:42",
        "first_observation_date": "2020-02-15",
        "last_observation_date": "2020-02-20",
        "data_arc_in_days": 5,
        "observations_used": 27,
        "orbit_uncertainty": "8",
        "minimum_orbit_intersection": ".0350728",
        "jupiter_tisserand_invariant": "5.283",
        "epoch_osculation": "2458895.5",
        "eccentricity": ".1666238146998337",
        "semi_major_axis": "1.194239328514623",
        "inclination": "11.50902425064528",
        "ascending_node_longitude": "145.1887435879981",
        "orbital_period": "476.6893845429314",
        "perihelion_distance": ".9952506159329485",
        "perihelion_argument": "322.8231961529811",
        "aphelion_distance": "1.393228041096297",
        "perihelion_time": "2458857.730228048759",
        "mean_anomaly": "28.52406271955104",
        "mean_motion": ".7552087620855712",
        "equinox": "J2000",
        "orbit_class": {
            "orbit_class_type": "APO",
            "orbit_class_description": "Near-Earth asteroid orbits which cross the Earth’s orbit similar to that of 1862 Apollo",
            "orbit_class_range": "a (semi-major axis) > 1.0 AU; q (perihelion) < 1.017 AU"
        }
    },
    "is_sentry_object": false
}